{
  "type": "FeatureCollection",
  "features": [
    {
      "type": "Feature",
      "properties": {
        "norad_id": 58647,
        "name": "TIANMU-1 13",
        "group": "weather",
        "lat": 78.26202923958553,
        "lon": -25.512779034252926,
        "alt_km": 488.5895211357738,
        "timestamp": "2025-12-19T10:50:00.835008+00:00",
        "meta_object_name": "TIANMU-1 13",
        "meta_object_id": "2023-205C",
        "meta_epoch": "2025-12-18T23:27:12.957120",
        "meta_mean_motion": 15.24601029,
        "meta_eccentricity": 0.00062035,
        "meta_inclination": 97.3613,
        "meta_ra_of_asc_node": 12.4981,
        "meta_arg_of_pericenter": 239.2334,
        "meta_mean_anomaly": 120.8293,
        "meta_ephemeris_type": 0,
        "meta_classification_type": "U",
        "meta_norad_cat_id": 58647,
        "meta_element_set_no": 999,
        "meta_rev_at_epoch": 11002,
        "meta_bstar": 0.00020233256,
        "meta_mean_motion_dot": 4.92e-05,
        "meta_mean_motion_ddot": 0,
        "tle_line1": "1 58647U 23205C   25352.97723330  .00004920  00000+0  20233-3 0  9990",
        "tle_line2": "2 58647  97.3613  12.4981 0006203 239.2334 120.8293 15.24601029110022"
      },
      "geometry": {
        "type": "Point",
        "coordinates": [
          -25.512779034252926,
          78.26202923958553
        ]
      }
    },
    {
      "type": "Feature",
      "properties": {
        "norad_id": 58648,
        "name": "TIANMU-1 14",
        "group": "weather",
        "lat": 8.36392871113387,
        "lon": -166.60529390222186,
        "alt_km": 492.4993968132012,
        "timestamp": "2025-12-19T10:50:00.835018+00:00",
        "meta_object_name": "TIANMU-1 14",
        "meta_object_id": "2023-205D",
        "meta_epoch": "2025-12-18T23:03:24.556896",
        "meta_mean_motion": 15.24583967,
        "meta_eccentricity": 0.00069445,
        "meta_inclination": 97.3545,
        "meta_ra_of_asc_node": 11.8249,
        "meta_arg_of_pericenter": 245.3581,
        "meta_mean_anomaly": 114.6934,
        "meta_ephemeris_type": 0,
        "meta_classification_type": "U",
        "meta_norad_cat_id": 58648,
        "meta_element_set_no": 999,
        "meta_rev_at_epoch": 11002,
        "meta_bstar": 0.00020386921,
        "meta_mean_motion_dot": 4.956e-05,
        "meta_mean_motion_ddot": 0,
        "tle_line1": "1 58648U 23205D   25352.96070089  .00004956  00000+0  20387-3 0  9995",
        "tle_line2": "2 58648  97.3545  11.8249 0006944 245.3581 114.6934 15.24583967110024"
      },
      "geometry": {
        "type": "Point",
        "coordinates": [
          -166.60529390222186,
          8.36392871113387
        ]
      }
    },
    {
      "type": "Feature",
      "properties": {
        "norad_id": 58660,
        "name": "TIANMU-1 19",
        "group": "weather",
        "lat": 32.07689411173518,
        "lon": -70.82696356666456,
        "alt_km": 479.3959227090736,
        "timestamp": "2025-12-19T10:50:00.835028+00:00",
        "meta_object_name": "TIANMU-1 19",
        "meta_object_id": "2023-208A",
        "meta_epoch": "2025-12-18T23:11:15.309024",
        "meta_mean_motion": 15.27959998,
        "meta_eccentricity": 0.00043708,
        "meta_inclination": 97.4393,
        "meta_ra_of_asc_node": 103.9913,
        "meta_arg_of_pericenter": 225.4029,
        "meta_mean_anomaly": 134.6854,
        "meta_ephemeris_type": 0,
        "meta_classification_type": "U",
        "meta_norad_cat_id": 58660,
        "meta_element_set_no": 999,
        "meta_rev_at_epoch": 10977,
        "meta_bstar": 0.0002727554,
        "meta_mean_motion_dot": 7.369e-05,
        "meta_mean_motion_ddot": 0,
        "tle_line1": "1 58660U 23208A   25352.96614941  .00007369  00000+0  27276-3 0  9998",
        "tle_line2": "2 58660  97.4393 103.9913 0004370 225.4029 134.6854 15.27959998109775"
      },
      "geometry": {
        "type": "Point",
        "coordinates": [
          -70.82696356666456,
          32.07689411173518
        ]
      }
    },
    {
      "type": "Feature",
      "properties": {
        "norad_id": 58661,
        "name": "TIANMU-1 20",
        "group": "weather",
        "lat": -69.25609694780339,
        "lon": -95.23410307845855,
        "alt_km": 481.28578767039744,
        "timestamp": "2025-12-19T10:50:00.835039+00:00",
        "meta_object_name": "TIANMU-1 20",
        "meta_object_id": "2023-208B",
        "meta_epoch": "2025-12-18T22:44:50.595648",
        "meta_mean_motion": 15.2914977,
        "meta_eccentricity": 0.00064841,
        "meta_inclination": 97.4331,
        "meta_ra_of_asc_node": 104.4268,
        "meta_arg_of_pericenter": 239.767,
        "meta_mean_anomaly": 120.2929,
        "meta_ephemeris_type": 0,
        "meta_classification_type": "U",
        "meta_norad_cat_id": 58661,
        "meta_element_set_no": 999,
        "meta_rev_at_epoch": 10984,
        "meta_bstar": 0.00026698553,
        "meta_mean_motion_dot": 7.482e-05,
        "meta_mean_motion_ddot": 0,
        "tle_line1": "1 58661U 23208B   25352.94780782  .00007482  00000+0  26699-3 0  9998",
        "tle_line2": "2 58661  97.4331 104.4268 0006484 239.7670 120.2929 15.29149770109848"
      },
      "geometry": {
        "type": "Point",
        "coordinates": [
          -95.23410307845855,
          -69.25609694780339
        ]
      }
    },
    {
      "type": "Feature",
      "properties": {
        "norad_id": 58662,
        "name": "TIANMU-1 21",
        "group": "weather",
        "lat": -43.498176290948805,
        "lon": 113.98948082708178,
        "alt_km": 477.0642673186312,
        "timestamp": "2025-12-19T10:50:00.835049+00:00",
        "meta_object_name": "TIANMU-1 21",
        "meta_object_id": "2023-208C",
        "meta_epoch": "2025-12-18T22:28:54.857856",
        "meta_mean_motion": 15.31679826,
        "meta_eccentricity": 0.00061063,
        "meta_inclination": 97.4379,
        "meta_ra_of_asc_node": 106.3519,
        "meta_arg_of_pericenter": 234.0014,
        "meta_mean_anomaly": 126.0662,
        "meta_ephemeris_type": 0,
        "meta_classification_type": "U",
        "meta_norad_cat_id": 58662,
        "meta_element_set_no": 999,
        "meta_rev_at_epoch": 10994,
        "meta_bstar": 0.00030218049,
        "meta_mean_motion_dot": 9.171e-05,
        "meta_mean_motion_ddot": 0,
        "tle_line1": "1 58662U 23208C   25352.93674604  .00009171  00000+0  30218-3 0  9992",
        "tle_line2": "2 58662  97.4379 106.3519 0006106 234.0014 126.0662 15.31679826109944"
      },
      "geometry": {
        "type": "Point",
        "coordinates": [
          113.98948082708178,
          -43.498176290948805
        ]
      }
    },
    {
      "type": "Feature",
      "properties": {
        "norad_id": 58663,
        "name": "TIANMU-1 22",
        "group": "weather",
        "lat": 36.831495448396105,
        "lon": -69.8527292790301,
        "alt_km": 480.73835707588114,
        "timestamp": "2025-12-19T10:50:00.835059+00:00",
        "meta_object_name": "TIANMU-1 22",
        "meta_object_id": "2023-208D",
        "meta_epoch": "2025-12-18T23:12:24.329664",
        "meta_mean_motion": 15.27706543,
        "meta_eccentricity": 0.00027088,
        "meta_inclination": 97.4387,
        "meta_ra_of_asc_node": 104.0483,
        "meta_arg_of_pericenter": 254.0461,
        "meta_mean_anomaly": 106.048,
        "meta_ephemeris_type": 0,
        "meta_classification_type": "U",
        "meta_norad_cat_id": 58663,
        "meta_element_set_no": 999,
        "meta_rev_at_epoch": 10978,
        "meta_bstar": 0.00025344704,
        "meta_mean_motion_dot": 6.788e-05,
        "meta_mean_motion_ddot": 0,
        "tle_line1": "1 58663U 23208D   25352.96694826  .00006788  00000+0  25345-3 0  9990",
        "tle_line2": "2 58663  97.4387 104.0483 0002708 254.0461 106.0480 15.27706543109781"
      },
      "geometry": {
        "type": "Point",
        "coordinates": [
          -69.8527292790301,
          36.831495448396105
        ]
      }
    },
    {
      "type": "Feature",
      "properties": {
        "norad_id": 58700,
        "name": "TIANMU-1 15",
        "group": "weather",
        "lat": -14.947115915852867,
        "lon": -7.109789237872227,
        "alt_km": 495.5479436933774,
        "timestamp": "2025-12-19T10:50:00.835069+00:00",
        "meta_object_name": "TIANMU-1 15",
        "meta_object_id": "2024-004A",
        "meta_epoch": "2025-12-18T22:57:11.844576",
        "meta_mean_motion": 15.24486339,
        "meta_eccentricity": 0.00059556,
        "meta_inclination": 97.4621,
        "meta_ra_of_asc_node": 174.4025,
        "meta_arg_of_pericenter": 264.0795,
        "meta_mean_anomaly": 95.9764,
        "meta_ephemeris_type": 0,
        "meta_classification_type": "U",
        "meta_norad_cat_id": 58700,
        "meta_element_set_no": 999,
        "meta_rev_at_epoch": 10829,
        "meta_bstar": 0.00022442134,
        "meta_mean_motion_dot": 5.445e-05,
        "meta_mean_motion_ddot": 0,
        "tle_line1": "1 58700U 24004A   25352.95638709  .00005445  00000+0  22442-3 0  9998",
        "tle_line2": "2 58700  97.4621 174.4025 0005955 264.0795  95.9764 15.24486339108296"
      },
      "geometry": {
        "type": "Point",
        "coordinates": [
          -7.109789237872227,
          -14.947115915852867
        ]
      }
    }
  ]
}